{
  "links" : {
    "next" : "https://api.nasa.gov/neo/rest/v1/feed?start_date=2008-02-23&end_date=2008-02-23&detailed=true&api_key=t0TVs3DtDT2H8Oy2Zy8m2eVrNsAVKAexjcZXUckd",
    "prev" : "https://api.nasa.gov/neo/rest/v1/feed?start_date=2008-02-21&end_date=2008-02-21&detailed=true&api_key=t0TVs3DtDT2H8Oy2Zy8m2eVrNsAVKAexjcZXUckd",
    "self" : "https://api.nasa.gov/neo/rest/v1/feed?start_date=2008-02-22&end_date=2008-02-22&detailed=true&api_key=t0TVs3DtDT2H8Oy2Zy8m2eVrNsAVKAexjcZXUckd"
  },
  "element_count" : 9,
  "near_earth_objects" : {
    "2008-02-22" : [ {
      "links" : {
        "self" : "https://api.nasa.gov/neo/rest/v1/neo/3517314?api_key=t0TVs3DtDT2H8Oy2Zy8m2eVrNsAVKAexjcZXUckd"
      },
      "neo_reference_id" : "3517314",
      "name" : "(2010 HF)",
      "nasa_jpl_url" : "http://ssd.jpl.nasa.gov/sbdb.cgi?sstr=3517314",
      "absolute_magnitude_h" : 26.2,
      "estimated_diameter" : {
        "kilometers" : {
          "estimated_diameter_min" : 0.0152951935,
          "estimated_diameter_max" : 0.0342010925
        },
        "meters" : {
          "estimated_diameter_min" : 15.2951935344,
          "estimated_diameter_max" : 34.201092472
        },
        "miles" : {
          "estimated_diameter_min" : 0.0095039897,
          "estimated_diameter_max" : 0.021251567
        },
        "feet" : {
          "estimated_diameter_min" : 50.1810827555,
          "estimated_diameter_max" : 112.2083122258
        }
      },
      "is_potentially_hazardous_asteroid" : false,
      "close_approach_data" : [ {
        "close_approach_date" : "2008-02-22",
        "epoch_date_close_approach" : 1203667200000,
        "relative_velocity" : {
          "kilometers_per_second" : "16.7547318152",
          "kilometers_per_hour" : "60317.0345346894",
          "miles_per_hour" : "37478.6595974019"
        },
        "miss_distance" : {
          "astronomical" : "0.3717669893",
          "lunar" : "144.6173553467",
          "kilometers" : "55615548",
          "miles" : "34557900"
        },
        "orbiting_body" : "Earth"
      } ],
      "orbital_data" : {
        "orbit_id" : "12",
        "orbit_determination_date" : "2017-04-06 08:57:45",
        "orbit_uncertainty" : "6",
        "minimum_orbit_intersection" : ".00711674",
        "jupiter_tisserand_invariant" : "4.234",
        "epoch_osculation" : "2458000.5",
        "eccentricity" : ".3795490971383164",
        "semi_major_axis" : "1.626356584419999",
        "inclination" : "1.190873204927563",
        "ascending_node_longitude" : "215.7952250799308",
        "orbital_period" : "757.5688088936449",
        "perihelion_distance" : "1.009074411178432",
        "perihelion_argument" : "348.9027532727748",
        "aphelion_distance" : "2.243638757661566",
        "perihelion_time" : "2458332.518364144458",
        "mean_anomaly" : "202.2234261907354",
        "mean_motion" : ".4752043586981158",
        "equinox" : "J2000"
      }
    }, {
      "links" : {
        "self" : "https://api.nasa.gov/neo/rest/v1/neo/3740038?api_key=t0TVs3DtDT2H8Oy2Zy8m2eVrNsAVKAexjcZXUckd"
      },
      "neo_reference_id" : "3740038",
      "name" : "(2016 AE165)",
      "nasa_jpl_url" : "http://ssd.jpl.nasa.gov/sbdb.cgi?sstr=3740038",
      "absolute_magnitude_h" : 21.8,
      "estimated_diameter" : {
        "kilometers" : {
          "estimated_diameter_min" : 0.1160259082,
          "estimated_diameter_max" : 0.2594418179
        },
        "meters" : {
          "estimated_diameter_min" : 116.0259082094,
          "estimated_diameter_max" : 259.4418179074
        },
        "miles" : {
          "estimated_diameter_min" : 0.0720951346,
          "estimated_diameter_max" : 0.1612096218
        },
        "feet" : {
          "estimated_diameter_min" : 380.6624406898,
          "estimated_diameter_max" : 851.1870938635
        }
      },
      "is_potentially_hazardous_asteroid" : false,
      "close_approach_data" : [ {
        "close_approach_date" : "2008-02-22",
        "epoch_date_close_approach" : 1203667200000,
        "relative_velocity" : {
          "kilometers_per_second" : "10.7106726876",
          "kilometers_per_hour" : "38558.4216755072",
          "miles_per_hour" : "23958.7037349839"
        },
        "miss_distance" : {
          "astronomical" : "0.4364117359",
          "lunar" : "169.7641601562",
          "kilometers" : "65286268",
          "miles" : "40567004"
        },
        "orbiting_body" : "Earth"
      } ],
      "orbital_data" : {
        "orbit_id" : "18",
        "orbit_determination_date" : "2017-04-06 08:29:10",
        "orbit_uncertainty" : "4",
        "minimum_orbit_intersection" : ".213406",
        "jupiter_tisserand_invariant" : "3.786",
        "epoch_osculation" : "2458000.5",
        "eccentricity" : ".3821835434937413",
        "semi_major_axis" : "1.927966679582932",
        "inclination" : "14.84603176331777",
        "ascending_node_longitude" : "136.1182617623844",
        "orbital_period" : "977.7947760134196",
        "perihelion_distance" : "1.191129542242065",
        "perihelion_argument" : "17.60196328268448",
        "aphelion_distance" : "2.6648038169238",
        "perihelion_time" : "2458410.425829905209",
        "mean_anomaly" : "209.0753863836862",
        "mean_motion" : ".3681754176144824",
        "equinox" : "J2000"
      }
    }, {
      "links" : {
        "self" : "https://api.nasa.gov/neo/rest/v1/neo/3756946?api_key=t0TVs3DtDT2H8Oy2Zy8m2eVrNsAVKAexjcZXUckd"
      },
      "neo_reference_id" : "3756946",
      "name" : "(2016 PC8)",
      "nasa_jpl_url" : "http://ssd.jpl.nasa.gov/sbdb.cgi?sstr=3756946",
      "absolute_magnitude_h" : 24.7,
      "estimated_diameter" : {
        "kilometers" : {
          "estimated_diameter_min" : 0.0305179233,
          "estimated_diameter_max" : 0.0682401509
        },
        "meters" : {
          "estimated_diameter_min" : 30.5179232594,
          "estimated_diameter_max" : 68.2401509401
        },
        "miles" : {
          "estimated_diameter_min" : 0.0189629525,
          "estimated_diameter_max" : 0.0424024508
        },
        "feet" : {
          "estimated_diameter_min" : 100.1244233463,
          "estimated_diameter_max" : 223.8850168104
        }
      },
      "is_potentially_hazardous_asteroid" : false,
      "close_approach_data" : [ {
        "close_approach_date" : "2008-02-22",
        "epoch_date_close_approach" : 1203667200000,
        "relative_velocity" : {
          "kilometers_per_second" : "11.66029963",
          "kilometers_per_hour" : "41977.0786680853",
          "miles_per_hour" : "26082.9242424"
        },
        "miss_distance" : {
          "astronomical" : "0.2244660619",
          "lunar" : "87.3172988892",
          "kilometers" : "33579644",
          "miles" : "20865424"
        },
        "orbiting_body" : "Earth"
      } ],
      "orbital_data" : {
        "orbit_id" : "7",
        "orbit_determination_date" : "2017-04-06 08:24:41",
        "orbit_uncertainty" : "6",
        "minimum_orbit_intersection" : ".0211059",
        "jupiter_tisserand_invariant" : "5.725",
        "epoch_osculation" : "2458000.5",
        "eccentricity" : ".1624008106051351",
        "semi_major_axis" : "1.075344949848807",
        "inclination" : "8.805803635015909",
        "ascending_node_longitude" : "129.9767675971443",
        "orbital_period" : "407.3053612917616",
        "perihelion_distance" : ".9007080583132222",
        "perihelion_argument" : "305.3233607351065",
        "aphelion_distance" : "1.249981841384391",
        "perihelion_time" : "2458130.078216947443",
        "mean_anomaly" : "245.4712887816267",
        "mean_motion" : ".8838577495230273",
        "equinox" : "J2000"
      }
    } ]
  }
}